IRIDIUM 138             
1 43071U 17083B   26192.31684252  .00000147  00000+0  45406-4 0  9999
2 43071  86.3996 311.6275 0002082  91.6705 268.4729 14.34217737447599
IRIDIUM 116             
1 43072U 17083C   26191.72697443  .00000147  00000+0  45420-4 0  9996
2 43072  86.3983 312.1606 0002404  99.2562 260.8905 14.34220153447546
IRIDIUM 130             
1 43073U 17083D   26192.32318694  .00000135  00000+0  41294-4 0  9994
2 43073  86.3991 312.1891 0002193 101.1278 259.0164 14.34216997447575
IRIDIUM 151             
1 43074U 17083E   26192.29781513  .00000152  00000+0  47318-4 0  9997
2 43074  86.3985 311.9802 0002224  95.3312 264.8137 14.34217266447592
IRIDIUM 134             
1 43075U 17083F   26192.40563909  .00000134  00000+0  40853-4 0  9995
2 43075  86.3986 311.9437 0002196  95.7382 264.4064 14.34217838447575
IRIDIUM 137             
1 43076U 17083G   26192.27878869  .00000136  00000+0  41511-4 0  9999
2 43076  86.3987 312.0899 0002663  95.2979 264.8521 14.34217695447626
IRIDIUM 141             
1 43077U 17083H   26192.27244339  .00000155  00000+0  48184-4 0  9993
2 43077  86.3984 311.9220 0002156  93.0872 267.0571 14.34217349447621
IRIDIUM 153             
1 43078U 17083J   26192.22462264  .00000076  00000+0  20068-4 0  9991
2 43078  86.3961 280.4217 0002116  94.4248 265.7189 14.34217650448728
IRIDIUM 131             
1 43079U 17083K   26192.32952873  .00000036  00000+0  56875-5 0  9995
2 43079  86.3989 312.0854 0002239  92.9779 267.1673 14.34217425447561
IRIDIUM 144             
1 43249U 18030A   26191.25420639  .00000016  00000+0 -14708-5 0  9996
2 43249  86.3959 280.7559 0002382  96.9893 263.1574 14.34217693433445
IRIDIUM 149             
1 43250U 18030B   26192.23730852  .00000136  00000+0  41421-4 0  9991
2 43250  86.3959 280.3118 0002258  93.7243 266.4211 14.34217660433606
IRIDIUM 157             
1 43251U 18030C   26191.20981032  .00000050  00000+0  10954-4 0  9998
2 43251  86.3961 280.7949 0002252  93.9359 266.2095 14.34216466433432
IRIDIUM 140             
1 43252U 18030D   26192.20559656  .00000089  00000+0  24729-4 0  9990
2 43252  86.3961 280.3912 0002203  94.3175 265.8272 14.34216486433632
IRIDIUM 145             
1 43253U 18030E   26192.19290806  .00000081  00000+0  21800-4 0  9997
2 43253  86.3959 280.3682 0002431  99.3864 260.7607 14.34216569433567
IRIDIUM 146             
1 43254U 18030F   26192.24364983  .00000166  00000+0  52054-4 0  9991
2 43254  86.3959 280.3593 0002451  97.7579 262.3896 14.34217729433585
IRIDIUM 148             
1 43255U 18030G   26192.21194069  .00000087  00000+0  24057-4 0  9999
2 43255  86.3960 280.4165 0002353  93.1733 266.9732 14.34216920433612
IRIDIUM 142             
1 43256U 18030H   26192.24999395  .00000154  00000+0  47847-4 0  9995
2 43256  86.3957 280.2888 0002407  98.3967 261.7501 14.34217859433580
IRIDIUM 150             
1 43257U 18030J   26191.17174645 -.00000245  00000+0 -94436-4 0  9999
2 43257  86.3963 280.8566 0002215  95.9860 264.1588 14.34219143433455
IRIDIUM 143             
1 43258U 18030K   26192.19925234  .00000141  00000+0  43359-4 0  9992
2 43258  86.3964 280.5201 0002333  98.2269 261.9192 14.34217605433536
IRIDIUM 161             
1 43478U 18047C   26192.15744448  .00000172  00000+0  45078-4 0  9990
2 43478  86.4467  78.4474 0002307  78.8180 281.3280 14.43284936428597
IRIDIUM 152             
1 43479U 18047D   26192.10220755  .00000139  00000+0  42563-4 0  9995
2 43479  86.3941  78.3319 0002151  82.6545 277.4895 14.34219134425915
IRIDIUM 147             
1 43480U 18047E   26191.20155174  .00000216  00000+0  70123-4 0  9998
2 43480  86.3943  78.7142 0002275  88.4445 271.7011 14.34216920425789
IRIDIUM 110             
1 43481U 18047F   26192.11488797  .00000139  00000+0  42682-4 0  9993
2 43481  86.3946  78.4248 0002192  77.1778 282.9663 14.34217525425902
IRIDIUM 162             
1 43482U 18047G   26191.11118814  .00000189  00000+0  50126-4 0  9990
2 43482  86.4467  78.7759 0002187  84.2783 275.8667 14.43283456428433
IRIDIUM 160             
1 43569U 18061A   26191.01419513  .00000111  00000+0  32630-4 0  9996
2 43569  86.3937  47.2497 0002252  86.2180 273.9273 14.34217652416643
IRIDIUM 166             
1 43570U 18061B   26192.50470309  .00000031  00000+0  39317-5 0  9994
2 43570  86.3940  46.5761 0002260  89.6407 270.5047 14.34217869416881
IRIDIUM 158             
1 43571U 18061C   26192.54275980  .00000026  00000+0  20594-5 0  9998
2 43571  86.3936  46.5699 0001970  86.0997 274.0424 14.34217155416852
IRIDIUM 165             
1 43572U 18061D   26192.00998152  .00000090  00000+0  25117-4 0  9999
2 43572  86.3944  46.8399 0002271  90.8618 269.2838 14.34217063416808
IRIDIUM 155             
1 43573U 18061E   26192.53007426  .00000010  00000+0 -35473-5 0  9993
2 43573  86.3933  46.4897 0001954  87.7892 272.3528 14.34216704416848
IRIDIUM 154             
1 43574U 18061F   26192.51104622  .00000179  00000+0  56795-4 0  9992
2 43574  86.3942  46.6330 0002315  89.9028 270.2433 14.34217626416891
IRIDIUM 163             
1 43575U 18061G   26192.07340728  .00000147  00000+0  45262-4 0  9995
2 43575  86.3938  46.7306 0002160  84.9908 275.1535 14.34217510416801
